KUIPER-00061            
1 64521U 25134X   25280.70146707 -.00161977  00000+0 -17241-1 0  9990
2 64521  51.8958 184.8189 0009111 124.6843 235.4983 14.89389583 17476
KUIPER-00062            
1 64522U 25134Y   25281.16668980  .00043439  00000+0  50778-2 0  9997
2 64522  51.8968 189.7732 0008164 145.7749  68.0249 14.84659254  4439
KUIPER-00063            
1 64523U 25134Z   25281.06716520  .00005541  00000+0  75865-3 0  9998
2 64523  51.9017 192.8863 0004439  88.1556 271.9914 14.79745148 17400
KUIPER-00064            
1 64524U 25134AA  25281.18659657  .00006707  00000+0  92027-3 0  9993
2 64524  51.9018 189.5825 0005874 200.8882 159.1840 14.79351870 17468
KUIPER-00065            
1 64525U 25134AB  25280.75907452  .00005097  00000+0  69665-3 0  9998
2 64525  51.9013 196.4581 0012228 131.1046 229.0974 14.79930564 17311
KUIPER-00066            
1 64526U 25134AC  25280.99226359  .00026462  00000+0  12972-2 0  9992
2 64526  51.8876 183.8494 0005260 138.9999 221.1376 15.17940951 17527
KUIPER-00069            
1 64816U 25151A   25281.14224132  .00048334  00000+0  17808-2 0  9993
2 64816  51.8826 242.9860 0007798  95.5743 264.6129 15.27323474 14061
KUIPER-00070            
1 64817U 25151B   25281.10191155  .00006530  00000+0  90100-3 0  9997
2 64817  51.8981 260.2933 0009873 108.4191 251.7845 14.79140696 13829
